NOAA 15                 
1 25338U 98030A   24295.89695274  .00000451  00000+0  20410-3 0  9992
2 25338  98.5598 320.3394 0009459 319.1657  40.8814 14.26758210375253
